{"type": "FeatureCollection", "features": [ {"type": "Feature", "properties": {"norad_id": 36011, "name": "IRIDIUM 33 DEB", "group": "iridium-33-debris", "lat": -64.3139825493227, "lon": -135.62673728577803, "alt_km": 749.72658471454, "timestamp": "2025-12-09T16:56:36.959751+00:00", "meta": {"OBJECT_NAME": "IRIDIUM 33 DEB", "OBJECT_ID": "1997-051US", "EPOCH": "2025-12-08T10:05:26.079072", "MEAN_MOTION": 14.41310203, "ECCENTRICITY": 0.00172479, "INCLINATION": 86.3414, "RA_OF_ASC_NODE": 37.2804, "ARG_OF_PERICENTER": 231.0749, "MEAN_ANOMALY": 187.2759, "EPHEMERIS_TYPE": 0, "CLASSIFICATION_TYPE": "U", "NORAD_CAT_ID": 36011, "ELEMENT_SET_NO": 999, "REV_AT_EPOCH": 64478, "BSTAR": 0.00083412768, "MEAN_MOTION_DOT": 2.72e-05, "MEAN_MOTION_DDOT": 0}, "tle": {"line1": "1 36011U 97051US  25342.42044073  .00002720  00000+0  83413-3 0  9995", "line2": "2 36011  86.3414  37.2804 0017247 231.0749 187.2759 14.41310203644787"}}, "geometry": {"type": "Point", "coordinates": [-135.62673728577803, -64.3139825493227]}}, {"type": "Feature", "properties": {"norad_id": 36012, "name": "IRIDIUM 33 DEB", "group": "iridium-33-debris", "lat": 54.84160802185534, "lon": -46.17778335848622, "alt_km": 943.611647621211, "timestamp": "2025-12-09T16:56:36.959761+00:00", "meta": {"OBJECT_NAME": "IRIDIUM 33 DEB", "OBJECT_ID": "1997-051UT", "EPOCH": "2025-12-08T15:17:32.042688", "MEAN_MOTION": 14.18803085, "ECCENTRICITY": 0.021266, "INCLINATION": 86.445, "RA_OF_ASC_NODE": 309.1888, "ARG_OF_PERICENTER": 276.4407, "MEAN_ANOMALY": 81.2606, "EPHEMERIS_TYPE": 0, "CLASSIFICATION_TYPE": "U", "NORAD_CAT_ID": 36012, "ELEMENT_SET_NO": 999, "REV_AT_EPOCH": 65426, "BSTAR": 0.010465, "MEAN_MOTION_DOT": 0.00027331, "MEAN_MOTION_DDOT": 0}, "tle": {"line1": "1 36012U 97051UT  25342.63717642  .00027331  00000+0  10465-1 0  9998", "line2": "2 36012  86.4450 309.1888 0212660 276.4407  81.2606 14.18803085654269"}}, "geometry": {"type": "Point", "coordinates": [-46.17778335848622, 54.84160802185534]}}, {"type": "Feature", "properties": {"norad_id": 36028, "name": "IRIDIUM 33 DEB", "group": "iridium-33-debris", "lat": 24.236608719416, "lon": -50.21621000021322, "alt_km": 569.5497343224051, "timestamp": "2025-12-09T16:56:36.959771+00:00", "meta": {"OBJECT_NAME": "IRIDIUM 33 DEB", "OBJECT_ID": "1997-051VK", "EPOCH": "2025-12-08T15:07:59.293632", "MEAN_MOTION": 14.94981488, "ECCENTRICITY": 0.002202, "INCLINATION": 86.3217, "RA_OF_ASC_NODE": 308.6297, "ARG_OF_PERICENTER": 65.6052, "MEAN_ANOMALY": 294.7472, "EPHEMERIS_TYPE": 0, "CLASSIFICATION_TYPE": "U", "NORAD_CAT_ID": 36028, "ELEMENT_SET_NO": 999, "REV_AT_EPOCH": 87063, "BSTAR": 0.0029712, "MEAN_MOTION_DOT": 0.00032753, "MEAN_MOTION_DDOT": 0}, "tle": {"line1": "1 36028U 97051VK  25342.63054738  .00032753  00000+0  29712-2 0  9995", "line2": "2 36028  86.3217 308.6297 0022020  65.6052 294.7472 14.94981488870638"}}, "geometry": {"type": "Point", "coordinates": [-50.21621000021322, 24.236608719416]}}, {"type": "Feature", "properties": {"norad_id": 36080, "name": "IRIDIUM 33 DEB", "group": "iridium-33-debris", "lat": 52.181861825854654, "lon": 14.065091280501724, "alt_km": 737.1797602793031, "timestamp": "2025-12-09T16:56:36.959781+00:00", "meta": {"OBJECT_NAME": "IRIDIUM 33 DEB", "OBJECT_ID": "1997-051VM", "EPOCH": "2025-12-09T08:24:04.128192", "MEAN_MOTION": 14.46584309, "ECCENTRICITY": 0.0017863, "INCLINATION": 86.3197, "RA_OF_ASC_NODE": 9.4635, "ARG_OF_PERICENTER": 167.4902, "MEAN_ANOMALY": 192.6748, "EPHEMERIS_TYPE": 0, "CLASSIFICATION_TYPE": "U", "NORAD_CAT_ID": 36080, "ELEMENT_SET_NO": 999, "REV_AT_EPOCH": 47365, "BSTAR": 0.0010096, "MEAN_MOTION_DOT": 3.665e-05, "MEAN_MOTION_DDOT": 0}, "tle": {"line1": "1 36080U 97051VM  25343.35004778  .00003665  00000+0  10096-2 0  9997", "line2": "2 36080  86.3197   9.4635 0017863 167.4902 192.6748 14.46584309473650"}}, "geometry": {"type": "Point", "coordinates": [14.065091280501724, 52.181861825854654]}}, {"type": "Feature", "properties": {"norad_id": 36083, "name": "IRIDIUM 33 DEB", "group": "iridium-33-debris", "lat": -1.6652647916351822, "lon": -144.4335630564298, "alt_km": 740.4615012302957, "timestamp": "2025-12-09T16:56:36.959792+00:00", "meta": {"OBJECT_NAME": "IRIDIUM 33 DEB", "OBJECT_ID": "1997-051VQ", "EPOCH": "2025-12-06T21:32:26.892672", "MEAN_MOTION": 14.43175138, "ECCENTRICITY": 0.00247889, "INCLINATION": 86.3442, "RA_OF_ASC_NODE": 36.6683, "ARG_OF_PERICENTER": 243.3344, "MEAN_ANOMALY": 116.5319, "EPHEMERIS_TYPE": 0, "CLASSIFICATION_TYPE": "U", "NORAD_CAT_ID": 36083, "ELEMENT_SET_NO": 999, "REV_AT_EPOCH": 85365, "BSTAR": 0.00098432537, "MEAN_MOTION_DOT": 3.337e-05, "MEAN_MOTION_DDOT": 0}, "tle": {"line1": "1 36083U 97051VQ  25340.89753348  .00003337  00000+0  98433-3 0  9998", "line2": "2 36083  86.3442  36.6683 0024788 243.3344 116.5319 14.43175138853653"}}, "geometry": {"type": "Point", "coordinates": [-144.4335630564298, -1.6652647916351822]}}, {"type": "Feature", "properties": {"norad_id": 36390, "name": "IRIDIUM 33 DEB", "group": "iridium-33-debris", "lat": 28.609674410140645, "lon": -57.191131839626706, "alt_km": 665.4047466486736, "timestamp": "2025-12-09T16:56:36.959802+00:00", "meta": {"OBJECT_NAME": "IRIDIUM 33 DEB", "OBJECT_ID": "1997-051VU", "EPOCH": "2025-12-08T14:44:10.068288", "MEAN_MOTION": 14.7351876, "ECCENTRICITY": 0.0029895, "INCLINATION": 86.2903, "RA_OF_ASC_NODE": 301.2813, "ARG_OF_PERICENTER": 175.8211, "MEAN_ANOMALY": 184.3262, "EPHEMERIS_TYPE": 0, "CLASSIFICATION_TYPE": "U", "NORAD_CAT_ID": 36390, "ELEMENT_SET_NO": 999, "REV_AT_EPOCH": 66201, "BSTAR": 0.0016262, "MEAN_MOTION_DOT": 0.00010673, "MEAN_MOTION_DDOT": 0}, "tle": {"line1": "1 36390U 97051VU  25342.61400542  .00010673  00000+0  16262-2 0  9996", "line2": "2 36390  86.2903 301.2813 0029895 175.8211 184.3262 14.73518760662010"}}, "geometry": {"type": "Point", "coordinates": [-57.191131839626706, 28.609674410140645]}}, {"type": "Feature", "properties": {"norad_id": 36483, "name": "IRIDIUM 33 DEB", "group": "iridium-33-debris", "lat": -43.020685162635786, "lon": 50.40047308505973, "alt_km": 753.8801927331306, "timestamp": "2025-12-09T16:56:36.959812+00:00", "meta": {"OBJECT_NAME": "IRIDIUM 33 DEB", "OBJECT_ID": "1997-051VZ", "EPOCH": "2025-12-08T11:14:38.908896", "MEAN_MOTION": 14.45787314, "ECCENTRICITY": 0.00108756, "INCLINATION": 86.3794, "RA_OF_ASC_NODE": 54.3174, "ARG_OF_PERICENTER": 137.8715, "MEAN_ANOMALY": 222.3325, "EPHEMERIS_TYPE": 0, "CLASSIFICATION_TYPE": "U", "NORAD_CAT_ID": 36483, "ELEMENT_SET_NO": 999, "REV_AT_EPOCH": 65084, "BSTAR": 0.00090663472, "MEAN_MOTION_DOT": 3.235e-05, "MEAN_MOTION_DDOT": 0}, "tle": {"line1": "1 36483U 97051VZ  25342.46850589  .00003235  00000+0  90663-3 0  9996", "line2": "2 36483  86.3794  54.3174 0010875 137.8715 222.3325 14.45787314650846"}}, "geometry": {"type": "Point", "coordinates": [50.40047308505973, -43.020685162635786]}}, {"type": "Feature", "properties": {"norad_id": 36490, "name": "IRIDIUM 33 DEB", "group": "iridium-33-debris", "lat": -62.903302803252515, "lon": -161.03238868212205, "alt_km": 652.4889038570145, "timestamp": "2025-12-09T16:56:36.959823+00:00", "meta": {"OBJECT_NAME": "IRIDIUM 33 DEB", "OBJECT_ID": "1997-051WG", "EPOCH": "2025-12-09T01:12:10.854432", "MEAN_MOTION": 14.76067725, "ECCENTRICITY": 0.00055229, "INCLINATION": 86.3654, "RA_OF_ASC_NODE": 12.1269, "ARG_OF_PERICENTER": 91.2882, "MEAN_ANOMALY": 268.897, "EPHEMERIS_TYPE": 0, "CLASSIFICATION_TYPE": "U", "NORAD_CAT_ID": 36490, "ELEMENT_SET_NO": 999, "REV_AT_EPOCH": 86430, "BSTAR": 0.0018321978, "MEAN_MOTION_DOT": 0.00012668, "MEAN_MOTION_DDOT": 0}, "tle": {"line1": "1 36490U 97051WG  25343.05012563  .00012668  00000+0  18322-2 0  9993", "line2": "2 36490  86.3654  12.1269 0005522  91.2882 268.8970 14.76067725864307"}}, "geometry": {"type": "Point", "coordinates": [-161.03238868212205, -62.903302803252515]}}, {"type": "Feature", "properties": {"norad_id": 36493, "name": "IRIDIUM 33 DEB", "group": "iridium-33-debris", "lat": -74.68874980982038, "lon": -0.42819122047625824, "alt_km": 683.9343644995297, "timestamp": "2025-12-09T16:56:36.959833+00:00", "meta": {"OBJECT_NAME": "IRIDIUM 33 DEB", "OBJECT_ID": "1997-051WK", "EPOCH": "2025-12-08T19:58:38.259264", "MEAN_MOTION": 14.65158506, "ECCENTRICITY": 0.00106914, "INCLINATION": 86.3572, "RA_OF_ASC_NODE": 13.4155, "ARG_OF_PERICENTER": 18.0895, "MEAN_ANOMALY": 342.0696, "EPHEMERIS_TYPE": 0, "CLASSIFICATION_TYPE": "U", "NORAD_CAT_ID": 36493, "ELEMENT_SET_NO": 999, "REV_AT_EPOCH": 74461, "BSTAR": 0.0020019244, "MEAN_MOTION_DOT": 0.00010799, "MEAN_MOTION_DDOT": 0}, "tle": {"line1": "1 36493U 97051WK  25342.83238726  .00010799  00000+0  20019-2 0  9991", "line2": "2 36493  86.3572  13.4155 0010691  18.0895 342.0696 14.65158506744618"}}, "geometry": {"type": "Point", "coordinates": [-0.42819122047625824, -74.68874980982038]}}, {"type": "Feature", "properties": {"norad_id": 37548, "name": "IRIDIUM 33 DEB", "group": "iridium-33-debris", "lat": -83.17392568857467, "lon": -103.10258710712857, "alt_km": 721.4573717983267, "timestamp": "2025-12-09T16:56:36.959854+00:00", "meta": {"OBJECT_NAME": "IRIDIUM 33 DEB", "OBJECT_ID": "1997-051XH", "EPOCH": "2025-12-08T21:31:39.163584", "MEAN_MOTION": 14.51252553, "ECCENTRICITY": 0.0025132, "INCLINATION": 86.3517, "RA_OF_ASC_NODE": 45.0407, "ARG_OF_PERICENTER": 201.7474, "MEAN_ANOMALY": 158.2667, "EPHEMERIS_TYPE": 0, "CLASSIFICATION_TYPE": "U", "NORAD_CAT_ID": 37548, "ELEMENT_SET_NO": 999, "REV_AT_EPOCH": 65476, "BSTAR": 0.0012917, "MEAN_MOTION_DOT": 5.175e-05, "MEAN_MOTION_DDOT": 0}, "tle": {"line1": "1 37548U 97051XH  25342.89698106  .00005175  00000+0  12917-2 0  9991", "line2": "2 37548  86.3517  45.0407 0025132 201.7474 158.2667 14.51252553654763"}}, "geometry": {"type": "Point", "coordinates": [-103.10258710712857, -83.17392568857467]}}]}